OBJECT_NAME,OBJECT_ID,EPOCH,MEAN_MOTION,ECCENTRICITY,INCLINATION,RA_OF_ASC_NODE,ARG_OF_PERICENTER,MEAN_ANOMALY,EPHEMERIS_TYPE,CLASSIFICATION_TYPE,NORAD_CAT_ID,ELEMENT_SET_NO,REV_AT_EPOCH,BSTAR,MEAN_MOTION_DOT,MEAN_MOTION_DDOT
IRIDIUM 154,2018-061F,2026-06-04T17:49:58.450368,14.34217482,.00020457,86.3969,62.0093,86.2341,273.9088,0,U,43574,999,41162,.2761751E-4,.97E-6,0
IRIDIUM 163,2018-061G,2026-06-04T03:58:50.353248,14.34218549,.00023559,86.3968,62.1661,84.7398,275.4066,0,U,43575,999,41151,.27859029E-4,.98E-6,0
IRIDIUM 156,2018-061H,2026-06-04T16:46:02.565984,14.34217252,.00021751,86.3964,61.9511,78.8278,281.3162,0,U,43576,999,41158,.1957171E-4,.75E-6,0
IRIDIUM 164,2018-061J,2026-06-04T17:59:06.285984,14.34216843,.00020809,86.3967,61.9699,89.7067,270.4368,0,U,43577,999,41163,.76150126E-4,.233E-5,0
IRIDIUM 159,2018-061K,2026-06-04T05:30:10.506528,14.34217325,.00021975,86.3964,62.1242,85.5340,274.6106,0,U,43578,999,41152,-.7067419E-5,0,0
IRIDIUM 180,2019-002A,2026-06-04T15:32:14.983296,14.34217604,.00022352,86.3974,358.8409,89.2813,270.8639,0,U,43922,999,38719,-.1451895E-5,.16E-6,0
IRIDIUM 176,2019-002B,2026-06-04T02:37:13.623744,14.72250537,.0002067,86.6094,359.0116,84.8735,275.2718,0,U,43923,999,39732,.14303584E-3,.926E-5,0
IRIDIUM 168,2019-002C,2026-06-04T15:23:06.974016,14.34217211,.00020576,86.3973,358.9206,89.6669,270.4763,0,U,43924,999,38717,-.14614096E-4,-.21E-6,0
IRIDIUM 173,2019-002D,2026-06-04T01:41:06.802368,14.34219202,.00022551,86.3973,359.0486,87.4462,272.6992,0,U,43925,999,38707,.86519218E-4,.262E-5,0
IRIDIUM 169,2019-002E,2026-06-04T17:34:22.420416,14.38608937,.00022996,86.4235,30.4005,70.7251,289.4196,0,U,43926,999,38843,.13446792E-3,.431E-5,0
IRIDIUM 172,2019-002F,2026-06-04T01:31:58.980576,14.34217486,.00022712,86.3974,359.0592,89.7635,270.3821,0,U,43927,999,38708,.153792E-5,.24E-6,0
IRIDIUM 175,2019-002G,2026-06-03T08:14:39.785856,14.43604578,.00009891,86.4502,296.3094,262.2416,97.8672,0,U,43928,999,39698,.10234176E-3,.367E-5,0
IRIDIUM 171,2019-002H,2026-06-04T02:45:02.926944,14.34217557,.00020268,86.3983,359.3425,85.3395,274.8032,0,U,43929,999,38708,-.2001684E-5,.14E-6,0
IRIDIUM 170,2019-002J,2026-06-04T02:46:08.019840,14.72248600,.00023666,86.6099,359.0117,87.6012,272.5476,0,U,43930,999,39733,.35948254E-4,.251E-5,0
IRIDIUM 167,2019-002K,2026-06-04T02:35:54.879648,14.34217664,.00019034,86.3975,359.0626,83.6021,276.5391,0,U,43931,999,38708,.174242E-5,.25E-6,0
IRIDIUM 181,2023-068S,2026-06-04T16:42:57.246624,14.43307636,.00022623,86.4503,62.0112,88.7980,271.3480,0,U,56726,999,16063,.10660442E-3,.379E-5,0
IRIDIUM 177,2023-068T,2026-06-04T00:07:13.499904,14.80229750,.00024468,86.1957,335.0540,86.4663,273.6838,0,U,56727,999,16441,.56244437E-4,.454E-5,0
IRIDIUM 174,2023-068U,2026-06-04T02:28:20.007840,14.72251410,.00024854,86.6101,359.1625,89.3509,270.7993,0,U,56728,999,16409,-.621144E-5,-.14E-6,0
IRIDIUM 178,2023-068V,2026-06-04T16:05:01.873248,14.80245286,.00024994,86.6547,30.5913,88.8287,271.3221,0,U,56729,999,16451,.15725439E-3,.1221E-4,0
IRIDIUM 179,2023-068W,2026-06-04T15:57:19.342944,14.80241824,.00023364,86.6785,39.5356,85.6761,274.4728,0,U,56730,999,16451,.15277467E-3,.1187E-4,0
